OBJECT_NAME,OBJECT_ID,EPOCH,MEAN_MOTION,ECCENTRICITY,INCLINATION,RA_OF_ASC_NODE,ARG_OF_PERICENTER,MEAN_ANOMALY,EPHEMERIS_TYPE,CLASSIFICATION_TYPE,NORAD_CAT_ID,ELEMENT_SET_NO,REV_AT_EPOCH,BSTAR,MEAN_MOTION_DOT,MEAN_MOTION_DDOT
GEOSCAN 3 (RS92S3),2025-155T,2026-07-16T20:04:39.615168,15.36345455,.0008552,97.4556,168.0829,83.1641,277.0576,0,U,64893,999,8540,.30631E-3,.10789E-3,0
INNOSAT 3 (RS92S0),2025-155U,2026-07-16T20:21:27.832320,15.45901483,.0008171,97.4500,170.1039,86.5204,273.6979,0,U,64894,999,8554,.51382E-3,.24964E-3,0
KNACKSAT-2,1998-067XZ,2026-07-16T09:50:21.532416,15.62488251,.0007923,51.6275,147.1984,331.8653,28.1912,0,U,67683,999,2484,.37622E-3,.3379E-3,0
