GEOSCAN 3 (RS92S3)      
1 64893U 25155T   26197.83656962  .00010789  00000+0  30631-3 0  9998
2 64893  97.4556 168.0829 0008552  83.1641 277.0576 15.36345455 85407
INNOSAT 3 (RS92S0)      
1 64894U 25155U   26197.84823880  .00024964  00000+0  51382-3 0  9991
2 64894  97.4500 170.1039 0008171  86.5204 273.6979 15.45901483 85546
KNACKSAT-2              
1 67683U 98067XZ  26197.40997144  .00033790  00000+0  37622-3 0  9997
2 67683  51.6275 147.1984 0007923 331.8653  28.1912 15.62488251 24845
